[{"OBJECT_NAME":"ONEWEB-0593","OBJECT_ID":"2022-166T","EPOCH":"2026-03-09T15:26:05.779680","MEAN_MOTION":13.21826902,"ECCENTRICITY":0.00014976,"INCLINATION":87.9164,"RA_OF_ASC_NODE":263.8266,"ARG_OF_PERICENTER":94.5885,"MEAN_ANOMALY":265.542,"EPHEMERIS_TYPE":0,"CLASSIFICATION_TYPE":"U","NORAD_CAT_ID":54659,"ELEMENT_SET_NO":999,"REV_AT_EPOCH":15839,"BSTAR":0.00019980661,"MEAN_MOTION_DOT":9.6e-7,"MEAN_MOTION_DDOT":0},{"OBJECT_NAME":"SCOUT G-1 DEB","OBJECT_ID":"1985-066F","EPOCH":"2026-03-08T07:04:37.312320","MEAN_MOTION":13.41019651,"ECCENTRICITY":0.01380588,"INCLINATION":90.2222,"RA_OF_ASC_NODE":9.4657,"ARG_OF_PERICENTER":231.2309,"MEAN_ANOMALY":283.6905,"EPHEMERIS_TYPE":0,"CLASSIFICATION_TYPE":"U","NORAD_CAT_ID":16020,"ELEMENT_SET_NO":999,"REV_AT_EPOCH":98239,"BSTAR":0.00022356574,"MEAN_MOTION_DOT":1.38e-6,"MEAN_MOTION_DDOT":0}]
